{"type": "FeatureCollection", "features": [{"type": "Feature", "properties": {"norad_id": 22490, "name": "SCD 1", "group": "resource", "lat": -18.49746738781496, "lon": 50.59426390512793, "alt_km": 745.3141892229269, "timestamp": "2025-12-27T23:26:37.009911+00:00", "meta": {"OBJECT_NAME": "SCD 1", "OBJECT_ID": "1993-009B", "EPOCH": "2025-12-27T12:33:21.441312", "MEAN_MOTION": 14.46009028, "ECCENTRICITY": 0.0042153, "INCLINATION": 24.9674, "RA_OF_ASC_NODE": 187.4237, "ARG_OF_PERICENTER": 121.1278, "MEAN_ANOMALY": 260.7849, "EPHEMERIS_TYPE": 0, "CLASSIFICATION_TYPE": "U", "NORAD_CAT_ID": 22490, "ELEMENT_SET_NO": 999, "REV_AT_EPOCH": 73624, "BSTAR": 0.00010296, "MEAN_MOTION_DOT": 5.62e-06, "MEAN_MOTION_DDOT": 0}, "tle": {"line1": "1 22490U 93009B   25361.52316483  .00000562  00000+0  10296-3 0  9990", "line2": "2 22490  24.9674 187.4237 0042153 121.1278 260.7849 14.46009028736242"}}, "geometry": {"type": "Point", "coordinates": [50.59426390512793, -18.49746738781496]}}, {"type": "Feature", "properties": {"norad_id": 25397, "name": "TECHSAT 1B (GO-32)", "group": "resource", "lat": 41.841050279600005, "lon": 173.6937020687564, "alt_km": 807.4482369451844, "timestamp": "2025-12-27T23:26:37.009938+00:00", "meta": {"OBJECT_NAME": "TECHSAT 1B (GO-32)", "OBJECT_ID": "1998-043D", "EPOCH": "2025-12-27T10:59:58.072992", "MEAN_MOTION": 14.24381199, "ECCENTRICITY": 0.0001582, "INCLINATION": 98.9935, "RA_OF_ASC_NODE": 345.011, "ARG_OF_PERICENTER": 32.8543, "MEAN_ANOMALY": 327.2733, "EPHEMERIS_TYPE": 0, "CLASSIFICATION_TYPE": "U", "NORAD_CAT_ID": 25397, "ELEMENT_SET_NO": 999, "REV_AT_EPOCH": 42688, "BSTAR": 7.1759e-05, "MEAN_MOTION_DOT": 1.19e-06, "MEAN_MOTION_DDOT": 0}, "tle": {"line1": "1 25397U 98043D   25361.45831103  .00000119  00000+0  71759-4 0  9995", "line2": "2 25397  98.9935 345.0110 0001582  32.8543 327.2733 14.24381199426883"}}, "geometry": {"type": "Point", "coordinates": [173.6937020687564, 41.841050279600005]}}, {"type": "Feature", "properties": {"norad_id": 25504, "name": "SCD 2", "group": "resource", "lat": -18.4856617243323, "lon": -86.20257392404947, "alt_km": 745.7922618276334, "timestamp": "2025-12-27T23:26:37.009954+00:00", "meta": {"OBJECT_NAME": "SCD 2", "OBJECT_ID": "1998-060A", "EPOCH": "2025-12-27T10:53:51.965088", "MEAN_MOTION": 14.45431477, "ECCENTRICITY": 0.001706, "INCLINATION": 24.9959, "RA_OF_ASC_NODE": 51.1667, "ARG_OF_PERICENTER": 108.1391, "MEAN_ANOMALY": 274.659, "EPHEMERIS_TYPE": 0, "CLASSIFICATION_TYPE": "U", "NORAD_CAT_ID": 25504, "ELEMENT_SET_NO": 999, "REV_AT_EPOCH": 43545, "BSTAR": 8.8142e-05, "MEAN_MOTION_DOT": 4.98e-06, "MEAN_MOTION_DDOT": 0}, "tle": {"line1": "1 25504U 98060A   25361.45407367  .00000498  00000+0  88142-4 0  9999", "line2": "2 25504  24.9959  51.1667 0017060 108.1391 274.6590 14.45431477435453"}}, "geometry": {"type": "Point", "coordinates": [-86.20257392404947, -18.4856617243323]}}, {"type": "Feature", "properties": {"norad_id": 25757, "name": "DLR-TUBSAT", "group": "resource", "lat": 81.10152136563894, "lon": -89.70290876849575, "alt_km": 705.1768701905148, "timestamp": "2025-12-27T23:26:37.009967+00:00", "meta": {"OBJECT_NAME": "DLR-TUBSAT", "OBJECT_ID": "1999-029B", "EPOCH": "2025-12-17T13:22:10.787520", "MEAN_MOTION": 14.52359578, "ECCENTRICITY": 0.00141996, "INCLINATION": 98.6566, "RA_OF_ASC_NODE": 336.2196, "ARG_OF_PERICENTER": 177.8976, "MEAN_ANOMALY": 182.2281, "EPHEMERIS_TYPE": 0, "CLASSIFICATION_TYPE": "U", "NORAD_CAT_ID": 25757, "ELEMENT_SET_NO": 999, "REV_AT_EPOCH": 40688, "BSTAR": 3.7650132e-05, "MEAN_MOTION_DOT": 1.05e-06, "MEAN_MOTION_DDOT": 0}, "tle": {"line1": "1 25757U 99029B   25351.55706930  .00000105  00000+0  37650-4 0  9996", "line2": "2 25757  98.6566 336.2196 0014199 177.8976 182.2281 14.52359578406886"}}, "geometry": {"type": "Point", "coordinates": [-89.70290876849575, 81.10152136563894]}}, {"type": "Feature", "properties": {"norad_id": 25994, "name": "TERRA", "group": "resource", "lat": -76.25702903291491, "lon": -161.86300841120547, "alt_km": 699.8243150214666, "timestamp": "2025-12-27T23:26:37.009979+00:00", "meta": {"OBJECT_NAME": "TERRA", "OBJECT_ID": "1999-068A", "EPOCH": "2025-12-27T11:19:15.680928", "MEAN_MOTION": 14.60918438, "ECCENTRICITY": 0.0003355, "INCLINATION": 97.9729, "RA_OF_ASC_NODE": 52.6141, "ARG_OF_PERICENTER": 64.9824, "MEAN_ANOMALY": 58.8442, "EPHEMERIS_TYPE": 0, "CLASSIFICATION_TYPE": "U", "NORAD_CAT_ID": 25994, "ELEMENT_SET_NO": 999, "REV_AT_EPOCH": 38453, "BSTAR": 0.00012185, "MEAN_MOTION_DOT": 5.52e-06, "MEAN_MOTION_DDOT": 0}, "tle": {"line1": "1 25994U 99068A   25361.47170927  .00000552  00000+0  12185-3 0  9996", "line2": "2 25994  97.9729  52.6141 0003355  64.9824  58.8442 14.60918438384530"}}, "geometry": {"type": "Point", "coordinates": [-161.86300841120547, -76.25702903291491]}}, {"type": "Feature", "properties": {"norad_id": 27004, "name": "MAROC-TUBSAT", "group": "resource", "lat": -35.76152204254259, "lon": 177.83305399289077, "alt_km": 1008.2240604848994, "timestamp": "2025-12-27T23:26:37.009990+00:00", "meta": {"OBJECT_NAME": "MAROC-TUBSAT", "OBJECT_ID": "2001-056D", "EPOCH": "2025-12-27T09:54:20.785248", "MEAN_MOTION": 13.70253612, "ECCENTRICITY": 0.0019337, "INCLINATION": 99.7918, "RA_OF_ASC_NODE": 170.115, "ARG_OF_PERICENTER": 221.2807, "MEAN_ANOMALY": 201.1305, "EPHEMERIS_TYPE": 0, "CLASSIFICATION_TYPE": "U", "NORAD_CAT_ID": 27004, "ELEMENT_SET_NO": 999, "REV_AT_EPOCH": 20266, "BSTAR": 3.2347e-05, "MEAN_MOTION_DOT": -1.8e-07, "MEAN_MOTION_DDOT": 0}, "tle": {"line1": "1 27004U 01056D   25361.41274057 -.00000018  00000+0  32347-4 0  9994", "line2": "2 27004  99.7918 170.1150 0019337 221.2807 201.1305 13.70253612202666"}}, "geometry": {"type": "Point", "coordinates": [177.83305399289077, -35.76152204254259]}}, {"type": "Feature", "properties": {"norad_id": 27424, "name": "AQUA", "group": "resource", "lat": -3.474885864784816, "lon": 142.59067670647562, "alt_km": 690.8224406190338, "timestamp": "2025-12-27T23:26:37.010002+00:00", "meta": {"OBJECT_NAME": "AQUA", "OBJECT_ID": "2002-022A", "EPOCH": "2025-12-26T23:47:53.598912", "MEAN_MOTION": 14.61764548, "ECCENTRICITY": 0.00018494, "INCLINATION": 98.4058, "RA_OF_ASC_NODE": 322.1038, "ARG_OF_PERICENTER": 99.7002, "MEAN_ANOMALY": 302.1298, "EPHEMERIS_TYPE": 0, "CLASSIFICATION_TYPE": "U", "NORAD_CAT_ID": 27424, "ELEMENT_SET_NO": 999, "REV_AT_EPOCH": 25811, "BSTAR": 0.00027355086, "MEAN_MOTION_DOT": 1.315e-05, "MEAN_MOTION_DDOT": 0}, "tle": {"line1": "1 27424U 02022A   25360.99159258  .00001315  00000+0  27355-3 0  9993", "line2": "2 27424  98.4058 322.1038 0001849  99.7002 302.1298 14.61764548258111"}}, "geometry": {"type": "Point", "coordinates": [142.59067670647562, -3.474885864784816]}}, {"type": "Feature", "properties": {"norad_id": 28051, "name": "IRS-P6 (RESOURCESAT-1)", "group": "resource", "lat": 75.20847471064823, "lon": 8.503813428332336, "alt_km": 739.1471918180277, "timestamp": "2025-12-27T23:26:37.010013+00:00", "meta": {"OBJECT_NAME": "IRS-P6 (RESOURCESAT-1)", "OBJECT_ID": "2003-046A", "EPOCH": "2025-12-27T13:46:02.936640", "MEAN_MOTION": 14.36081352, "ECCENTRICITY": 0.0065011, "INCLINATION": 98.2159, "RA_OF_ASC_NODE": 41.2917, "ARG_OF_PERICENTER": 136.4252, "MEAN_ANOMALY": 18.7377, "EPHEMERIS_TYPE": 0, "CLASSIFICATION_TYPE": "U", "NORAD_CAT_ID": 28051, "ELEMENT_SET_NO": 999, "REV_AT_EPOCH": 15589, "BSTAR": 9.0655e-05, "MEAN_MOTION_DOT": 2.3e-06, "MEAN_MOTION_DDOT": 0}, "tle": {"line1": "1 28051U 03046A   25361.57364510  .00000230  00000+0  90655-4 0  9990", "line2": "2 28051  98.2159  41.2917 0065011 136.4252  18.7377 14.36081352155896"}}, "geometry": {"type": "Point", "coordinates": [8.503813428332336, 75.20847471064823]}}, {"type": "Feature", "properties": {"norad_id": 28220, "name": "SHIYAN-1 (SY-1)", "group": "resource", "lat": -34.54816360107496, "lon": 69.8963651585866, "alt_km": 484.8420272717649, "timestamp": "2025-12-27T23:26:37.010024+00:00", "meta": {"OBJECT_NAME": "SHIYAN-1 (SY-1)", "OBJECT_ID": "2004-012A", "EPOCH": "2025-12-27T03:10:17.240736", "MEAN_MOTION": 15.28524905, "ECCENTRICITY": 0.00051661, "INCLINATION": 97.8914, "RA_OF_ASC_NODE": 63.5214, "ARG_OF_PERICENTER": 264.7953, "MEAN_ANOMALY": 95.2696, "EPHEMERIS_TYPE": 0, "CLASSIFICATION_TYPE": "U", "NORAD_CAT_ID": 28220, "ELEMENT_SET_NO": 999, "REV_AT_EPOCH": 18476, "BSTAR": 0.00061686102, "MEAN_MOTION_DOT": 0.00017068, "MEAN_MOTION_DDOT": 0}, "tle": {"line1": "1 28220U 04012A   25361.13214399  .00017068  00000+0  61686-3 0  9991", "line2": "2 28220  97.8914  63.5214 0005166 264.7953  95.2696 15.28524905184763"}}, "geometry": {"type": "Point", "coordinates": [69.8963651585866, -34.54816360107496]}}, {"type": "Feature", "properties": {"norad_id": 28376, "name": "AURA", "group": "resource", "lat": -81.54320410951271, "lon": 52.44119273949946, "alt_km": 698.3780598637195, "timestamp": "2025-12-27T23:26:37.010035+00:00", "meta": {"OBJECT_NAME": "AURA", "OBJECT_ID": "2004-026A", "EPOCH": "2025-12-27T10:42:44.417952", "MEAN_MOTION": 14.60980823, "ECCENTRICITY": 0.0001458, "INCLINATION": 98.3205, "RA_OF_ASC_NODE": 311.7431, "ARG_OF_PERICENTER": 90.22, "MEAN_ANOMALY": 269.9167, "EPHEMERIS_TYPE": 0, "CLASSIFICATION_TYPE": "U", "NORAD_CAT_ID": 28376, "ELEMENT_SET_NO": 999, "REV_AT_EPOCH": 14113, "BSTAR": 0.00026631, "MEAN_MOTION_DOT": 1.258e-05, "MEAN_MOTION_DDOT": 0}, "tle": {"line1": "1 28376U 04026A   25361.44634743  .00001258  00000+0  26631-3 0  9996", "line2": "2 28376  98.3205 311.7431 0001458  90.2200 269.9167 14.60980823141137"}}, "geometry": {"type": "Point", "coordinates": [52.44119273949946, -81.54320410951271]}}]}